ONEWEB-0340             
1 49206U 21083W   25021.57485458  .00000072  00000+0  14994-3 0  9999
2 49206  87.9078  77.2270 0001909  94.7177 265.4173 13.18683872162544
ONEWEB-0341             
1 49207U 21083X   25021.58275107  .00000057  00000+0  11210-3 0  9990
2 49207  87.9076  77.2368 0002509  98.3104 261.8312 13.18685177162565
ONEWEB-0342             
1 49208U 21083Y   25021.53798149  .00000171  00000+0  38784-3 0  9994
2 49208  87.9246  16.2497 0001738  91.6037 268.5296 13.20774249169244
ONEWEB-0343             
1 49209U 21083Z   25021.57802488  .00000121  00000+0  27432-3 0  9994
2 49209  87.9072  77.2320 0002466 106.3260 253.8143 13.18685150162616
ONEWEB-0344             
1 49210U 21083AA  25021.56033023  .00000361  00000+0  95436-3 0  9991
2 49210  87.8894  61.9954 0002231  91.8092 268.3292 13.13468501163737
ONEWEB-0345             
1 49211U 21083AB  25021.57778698 -.00000058  00000+0 -19306-3 0  9994
2 49211  87.8891  61.9605 0002286  91.4098 268.7293 13.13469082163741
ONEWEB-0346             
1 49212U 21083AC  25021.58749895  .00000006  00000+0 -16760-4 0  9997
2 49212  87.9077  77.2452 0001780  88.3958 271.7378 13.18683959162559
ONEWEB-0348             
1 49213U 21083AD  25021.52852162  .00000111  00000+0  24089-3 0  9992
2 49213  87.9256  16.2444 0002176  72.6824 287.4548 13.20773361169270
